GLOBALSTAR M094 [+]     
1 39074U 13005C   23288.58883416 -.00000101  00000+0  15644-4 0  9994
2 39074  51.9947 241.2097 0000738  51.6526 308.4407 12.62268427495260
GLOBALSTAR M096 [+]     
1 39075U 13005D   23288.28522034 -.00000092  00000+0  65790-4 0  9994
2 39075  52.0069 290.1724 0000576  41.0562 319.0348 12.62264899494148
GLOBALSTAR M078 [+]     
1 39076U 13005E   23288.49616083 -.00000172  00000+0 -37850-3 0  9991
2 39076  51.9905  14.8672 0000495 250.8595 109.2218 12.62260044492797
GLOBALSTAR M095 [+]     
1 39077U 13005F   23288.60206548 -.00000081  00000+0  12546-3 0  9999
2 39077  51.9828  12.0471 0000250 350.6677   9.4185 12.62269452492660
GLOBALSTAR M087 [+]     
1 52888U 22064A   23288.56786178 -.00000062  00000+0  12608-3 0  9994
2 52888  51.9776 344.8321 0009979 101.1774 259.0249 13.37555114 64655
